BEIDOU-2 IGSO-1         
1 36828U 10036A   26132.68902604 -.00000041  00000+0  00000+0 0  9990
2 36828  54.2951 163.2807 0058855 224.5644 197.8413  1.00282752 57743
BEIDOU-2 G4             
1 37210U 10057A   26134.13670617 -.00000098  00000+0  00000+0 0  9999
2 37210   3.5620  69.1348 0005570 210.1313 161.8188  1.00272475 56956
BEIDOU-2 IGSO-2         
1 37256U 10068A   26132.65482429 -.00000223  00000+0  00000+0 0  9998
2 37256  47.6166 272.2741 0054020 211.9968  87.9181  1.00295443 56437
BEIDOU-2 IGSO-3         
1 37384U 11013A   26131.75395624 -.00000196  00000+0  00000+0 0  9990
2 37384  62.3600  40.4988 0034014 186.6429  22.0878  1.00277207 55299
BEIDOU-2 IGSO-4         
1 37763U 11038A   26133.55324119  .00000080  00000+0  00000+0 0  9990
2 37763  54.5863 165.9790 0158045 233.0040 123.0490  1.00291146 54294
BEIDOU-2 IGSO-5         
1 37948U 11073A   26133.85233506 -.00000172  00000+0  00000+0 0  9999
2 37948  47.7440 271.9697 0111792 220.6221 138.4497  1.00256396 52786
BEIDOU-2 G5             
1 38091U 12008A   26134.04530182  .00000072  00000+0  00000+0 0  9998
2 38091   3.4882  69.8905 0011016 271.4003 325.4847  1.00271750 52026
BEIDOU-2 M3             
1 38250U 12018A   26133.82338032 -.00000044  00000+0  00000+0 0  9991
2 38250  55.7887 306.0335 0019754 276.7594  83.0056  1.86230025 95302
BEIDOU-2 M4             
1 38251U 12018B   26132.68171406 -.00000040  00000+0  00000+0 0  9991
2 38251  55.6900 305.2883 0010954 282.0858  77.7844  1.86229765 95284
BEIDOU-2 M6             
1 38775U 12050B   26133.46547221 -.00000034  00000+0  00000+0 0  9990
2 38775  56.5154  64.0423 0014338 351.5107   8.4474  1.86230860 92662
BEIDOU-2 G6             
1 38953U 12059A   26133.90770244 -.00000161  00000+0  00000+0 0  9990
2 38953   4.3343  73.8788 0010495 320.7254 247.9048  1.00271914 49563
BEIDOU-3S IGSO-1S       
1 40549U 15019A   26133.90995616 -.00000178  00000+0  00000+0 0  9993
2 40549  49.2621 295.8737 0037733 190.2044 167.2223  1.00257659 40723
BEIDOU-3S M2S           
1 40748U 15037A   26133.42160253 -.00000044  00000+0  00000+0 0  9994
2 40748  54.9026 303.2431 0007483 267.3673  92.5347  1.86232251 73474
BEIDOU-3S M1S           
1 40749U 15037B   26132.02261529 -.00000039  00000+0  00000+0 0  9992
2 40749  54.9005 303.2786 0004165  55.6265 304.4052  1.86254900 73455
BEIDOU-3S IGSO-2S       
1 40938U 15053A   26133.82802839 -.00000172  00000+0  00000+0 0  9992
2 40938  49.2776 259.1918 0064286 190.7677 176.2360  1.00267682 39019
BEIDOU-2 IGSO-6         
1 41434U 16021A   26133.71344662 -.00000171  00000+0  00000+0 0  9992
2 41434  60.1795  38.3842 0057349 232.4091 312.1070  1.00265272 37136
BEIDOU-2 G7             
1 41586U 16037A   26133.98427069 -.00000339  00000+0  00000+0 0  9995
2 41586   1.6348  68.9898 0007590 358.9438 268.7150  1.00269491  6543
BEIDOU-3 M1             
1 43001U 17069A   26133.76780652 -.00000035  00000+0  00000+0 0  9994
2 43001  56.6631  64.2188 0011642 320.5367  39.3602  1.86231382 57960
BEIDOU-3 M2             
1 43002U 17069B   26133.16952611 -.00000032  00000+0  00000+0 0  9992
2 43002  56.6620  64.2738 0009693 344.6836  15.2699  1.86229936 57940
BEIDOU-3 M7             
1 43107U 18003A   26133.44810736 -.00000046  00000+0  00000+0 0  9994
2 43107  54.3605 303.5264 0005232  85.3139 274.7340  1.86228299 56706
BEIDOU-3 M8             
1 43108U 18003B   26132.85647029 -.00000043  00000+0  00000+0 0  9999
2 43108  54.3540 303.5291 0002179 277.0252  82.9401  1.86231209 56700
BEIDOU-3 M4             
1 43207U 18018A   26133.83609041 -.00000035  00000+0  00000+0 0  9997
2 43207  56.6222  64.2817 0007810   8.4475 351.5469  1.86231296 56106
BEIDOU-3 M3             
1 43208U 18018B   26133.90253905 -.00000036  00000+0  00000+0 0  9991
2 43208  56.6215  64.2834 0009596 332.7979  27.1331  1.86231253 56100
BEIDOU-3 M9             
1 43245U 18029A   26133.04629420 -.00000044  00000+0  00000+0 0  9997
2 43245  54.2274 301.1779 0000806 101.6627 258.3330  1.86228295 55242
BEIDOU-3 M10            
1 43246U 18029B   26132.98083424 -.00000043  00000+0  00000+0 0  9997
2 43246  54.2250 301.2067 0004582  37.0226 322.9958  1.86229383 55221
BEIDOU-2 IGSO-7         
1 43539U 18057A   26133.48608229  .00000020  00000+0  00000+0 0  9999
2 43539  55.1877 163.3615 0104220 237.8550 117.1301  1.00261532 28771
BEIDOU-3 M5             
1 43581U 18062A   26132.13113073  .00000077  00000+0  00000+0 0  9993
2 43581  54.0834 183.5303 0004814 287.8378  72.1926  1.86229005 52962
BEIDOU-3 M6             
1 43582U 18062B   26133.06834912  .00000088  00000+0  00000+0 0  9991
2 43582  54.0830 183.4875 0004753  17.1476 342.9557  1.86227902 52981
BEIDOU-3 M12            
1 43602U 18067A   26129.24802271  .00000046  00000+0  00000+0 0  9991
2 43602  54.1783 182.3610 0007840  32.7480 327.3771  1.86227965 52394
BEIDOU-3 M11            
1 43603U 18067B   26132.60474189  .00000085  00000+0  00000+0 0  9992
2 43603  54.1758 182.2111 0004416  17.3082 342.7922  1.86227468 52482
BEIDOU-3 M13            
1 43622U 18072A   26133.63367348 -.00000035  00000+0  00000+0 0  9997
2 43622  56.5956  63.8000 0008352 321.7173  38.2058  1.86231484 52015
